[
    {
        "Altitude(m)": 604221.1965631591,
        "Argument of Periapsis(deg)": 0.0,
        "Eccentricity": 0.0,
        "Inclination(deg)": 60.0,
        "Latitude(deg)": 14.117201578332606,
        "Longitude(deg)": -41.665868747962065,
        "Mean Anomaly(deg)": 16.363600000000005,
        "RAAN(deg)": 50.0,
        "Satellite Name": "Test1 221",
        "Satellite Number": 221,
        "Semi-Major Axis(m)": 6980739.136638005,
        "Time(s)": 0
    },
    {
        "Altitude(m)": 604235.3372904523,
        "Argument of Periapsis(deg)": 0.00010418945913296404,
        "Eccentricity": 0.0,
        "Inclination(deg)": 60.0,
        "Latitude(deg)": 14.651598801716204,
        "Longitude(deg)": -41.37742275227366,
        "Mean Anomaly(deg)": 16.98370614546183,
        "RAAN(deg)": 49.99957995086026,
        "Satellite Name": "Test1 221",
        "Satellite Number": 221,
        "Semi-Major Axis(m)": 6980739.136638005,
        "Time(s)": 10
    }
]